[{"OBJECT_ID":"2011-032A","OBJECT_NAME":"TIANLIAN 1-02","NORAD_CAT_ID":"37737","OBJECT_TYPE":"PAYLOAD","PERIOD":"1436.118","INCLINATION":"1.9883","APOGEE":"35809.229","PERIGEE":"35764.795","ECCENTRICITY":"0.0005269","MEAN_MOTION":"1.00270303","TLE_LINE1":"1 37737U 11032A   16238.71354186  .00000002  00000-0  00000+0 0  9990","TLE_LINE2":"2 37737   1.9883  78.8757 0005269 135.0649 194.1131  1.00270303 18791","LAUNCH_DATE":"2011-07-11","LAUNCH_SITE":"Xichang Space Center, China","OWNER":"PEOPLES REPUBLIC OF CHINA","ORBIT_TYPE":"Geosynchronous","OPERATIONAL_STATUS":"Operational","satInfo":{"lng":73.65562291656062,"lat":1.6623273360063486,"elevation":-6.949912613722061,"azimuth":241.34437708343935,"range":42442.943496905886,"height":35770.66924465643,"velocity":3.0745633053111736},"x":288,"y":-83,"dx":0.8652129182412158,"dy":-2.950312885860496},{"OBJECT_ID":"2011-034A","OBJECT_NAME":"GSAT 12","NORAD_CAT_ID":"37746","OBJECT_TYPE":"PAYLOAD","PERIOD":"1436.098","INCLINATION":"0.0089","APOGEE":"35809.577","PERIGEE":"35763.660","ECCENTRICITY":"0.0005445","MEAN_MOTION":"1.00271706","TLE_LINE1":"1 37746U 11034A   16238.86923847 -.00000193 +00000-0 +00000-0 0  9997","TLE_LINE2":"2 37746 000.0089 124.3097 0005445 344.4899 261.6664 01.00271706007586","LAUNCH_DATE":"2011-07-15","LAUNCH_SITE":"SIRHARIKOTA","OWNER":"INDIA","ORBIT_TYPE":"Geosynchronous","OPERATIONAL_STATUS":"Operational","satInfo":{"lng":67.65926187922821,"lat":-0.9695916946085498,"elevation":-9.523059905987104,"azimuth":247.34073812077182,"range":42731.067693827725,"height":35770.08670455249,"velocity":3.075843542839356},"x":277,"y":-112,"dx":1.1691708877316795,"dy":-2.844969759998738},{"OBJECT_ID":"2011-035A","OBJECT_NAME":"SES 3","NORAD_CAT_ID":"37748","OBJECT_TYPE":"PAYLOAD","PERIOD":"1436.088","INCLINATION":"0.0531","APOGEE":"35796.695","PERIGEE":"35776.169","ECCENTRICITY":"0.0002434","MEAN_MOTION":"1.00272371","TLE_LINE1":"1 37748U 11035A   16239.46533172 -.00000131  00000-0  00000+0 0  9996","TLE_LINE2":"2 37748   0.0531 294.3698 0002434 230.7643 234.5177  1.00272371 18785","LAUNCH_DATE":"2011-07-15","LAUNCH_SITE":"TYURATAM MISSILE AND SPACE COMPLEX","OWNER":"UNITED STATES OF AMERICA","ORBIT_TYPE":"Geosynchronous","OPERATIONAL_STATUS":"Operational","satInfo":{"lng":-104.73372707583471,"lat":-0.415347326725364,"elevation":-8.97959463684041,"azimuth":59.73372707583471,"range":42685.44941218378,"height":35785.265874081095,"velocity":3.0748084430671314},"x":-290,"y":74,"dx":-0.7820076719018176,"dy":2.9737032405140256},{"OBJECT_ID":"2011-035B","OBJECT_NAME":"KAZSAT 2","NORAD_CAT_ID":"37749","OBJECT_TYPE":"PAYLOAD","PERIOD":"1436.096","INCLINATION":"0.0116","APOGEE":"35787.372","PERIGEE":"35785.787","ECCENTRICITY":"1.88e-05","MEAN_MOTION":"1.00271845","TLE_LINE1":"1 37749U 11035B   16239.04700255 -.00000226  00000-0  00000+0 0  9994","TLE_LINE2":"2 37749   0.0116 140.8038 0000188  21.4521 275.8914  1.00271845 18650","LAUNCH_DATE":"2011-07-15","LAUNCH_SITE":"TYURATAM MISSILE AND SPACE COMPLEX","OWNER":"KAZAKHSTAN","ORBIT_TYPE":"Geosynchronous","OPERATIONAL_STATUS":"Operational","satInfo":{"lng":64.07035665011749,"lat":-1.200673276089568,"elevation":-9.74509805510524,"azimuth":250.9296433498825,"range":42771.53177085257,"height":35785.47302572953,"velocity":3.0747234568334174},"x":270,"y":-128,"dx":1.3444755253228982,"dy":-2.7651961770929305},{"OBJECT_ID":"2011-041A","OBJECT_NAME":"ASTRA 1N","NORAD_CAT_ID":"37775","OBJECT_TYPE":"PAYLOAD","PERIOD":"1436.096","INCLINATION":"0.0632","APOGEE":"35798.591","PERIGEE":"35774.583","ECCENTRICITY":"0.0002847","MEAN_MOTION":"1.00271819","TLE_LINE1":"1 37775U 11041A   16238.67879186  .00000093  00000-0  00000+0 0  9999","TLE_LINE2":"2 37775   0.0632 319.0899 0002847 145.3176 133.4869  1.00271819 18472","LAUNCH_DATE":"2011-08-06","LAUNCH_SITE":"FRENCH GUIANA","OWNER":"SOCIÉTÉ EUROPÉENNE DES SATELLITES","ORBIT_TYPE":"Geosynchronous","OPERATIONAL_STATUS":"Operational","satInfo":{"lng":33.64256105317183,"lat":1.5296379625188492,"elevation":-7.080994188147596,"azimuth":281.35743894682815,"range":42452.88806477955,"height":35765.960771541126,"velocity":3.075552977174814},"x":166,"y":-244,"dx":2.560428408559682,"dy":-1.7038874610869688},{"OBJECT_ID":"2011-041B","OBJECT_NAME":"BSAT-3C","NORAD_CAT_ID":"37776","OBJECT_TYPE":"PAYLOAD","PERIOD":"1436.140","INCLINATION":"0.049","APOGEE":"35789.348","PERIGEE":"35785.562","ECCENTRICITY":"4.49e-05","MEAN_MOTION":"1.00268723","TLE_LINE1":"1 37776U 11041B   16238.84771685 -.00000378  00000-0  00000+0 0  9991","TLE_LINE2":"2 37776   0.0490 283.2399 0000449 358.5101 107.9028  1.00268723 18602","LAUNCH_DATE":"2011-08-06","LAUNCH_SITE":"FRENCH GUIANA","OWNER":"JAPAN","ORBIT_TYPE":"Geosynchronous","OPERATIONAL_STATUS":"Backup/Standby","satInfo":{"lng":49.02953648333354,"lat":0.9960651452665295,"elevation":-7.596817915295662,"azimuth":265.9704635166664,"range":42545.99028488975,"height":35800.78934062005,"velocity":3.0741493215186235},"x":226,"y":-193,"dx":2.015627123938552,"dy":-2.3211293260472616},{"OBJECT_ID":"2011-041C","OBJECT_NAME":"ARIANE 5 R/B","NORAD_CAT_ID":"37777","OBJECT_TYPE":"ROCKET BODY","PERIOD":"603.914","INCLINATION":"1.9781","APOGEE":"34304.243","PERIGEE":"273.545","ECCENTRICITY":"0.7189474","MEAN_MOTION":"2.38444408","TLE_LINE1":"1 37777U 11041C   16237.72573300 +.00000770 +00000-0 +33107-3 0  9995","TLE_LINE2":"2 37777 001.9781 065.4421 7189474 299.8757 008.0286 02.38444408043107","LAUNCH_DATE":"2011-08-06","LAUNCH_SITE":"FRENCH GUIANA","OWNER":"FRANCE","ORBIT_TYPE":"Highly Elliptical Orbit","OPERATIONAL_STATUS":"N/A, derelict rocket body","satInfo":{"lng":-32.618074504263426,"lat":2.33159066642057,"elevation":-7.484514486474036,"azimuth":347.6180745042634,"range":37267.44215255634,"height":30602.370640737987,"velocity":2.151283354474832},"x":-138,"y":-211,"dx":1.8119880954207486,"dy":1.1596202884108116},{"OBJECT_ID":"2011-042A","OBJECT_NAME":"PAKSAT 1R","NORAD_CAT_ID":"37779","OBJECT_TYPE":"PAYLOAD","PERIOD":"1436.084","INCLINATION":"0.0249","APOGEE":"35793.045","PERIGEE":"35779.671","ECCENTRICITY":"0.0001586","MEAN_MOTION":"1.00272636","TLE_LINE1":"1 37779U 11042A   16238.94282159 +.00000126 +00000-0 +00000-0 0  9990","TLE_LINE2":"2 37779 000.0249 121.5530 0001586 017.7765 212.6849 01.00272636018558","LAUNCH_DATE":"2011-08-11","LAUNCH_SITE":"Xichang Space Center, China","OWNER":"PAKISTAN","ORBIT_TYPE":"Geosynchronous","OPERATIONAL_STATUS":"Operational","satInfo":{"lng":96.91859306079397,"lat":0.1146397020601762,"elevation":-8.466207309792265,"azimuth":218.08140693920603,"range":42607.17184870781,"height":35764.82316121194,"velocity":3.075638264158406},"x":297,"y":35,"dx":-0.37048828603013795,"dy":-3.053242401426684},{"OBJECT_ID":"2011-047A","OBJECT_NAME":"CHINASAT 1A","NORAD_CAT_ID":"37804","OBJECT_TYPE":"PAYLOAD","PERIOD":"1436.167","INCLINATION":"0.0641","APOGEE":"35796.758","PERIGEE":"35779.191","ECCENTRICITY":"0.0002083","MEAN_MOTION":"1.00266869","TLE_LINE1":"1 37804U 11047A   16238.70243154 -.00000366 +00000-0 +00000-0 0  9997","TLE_LINE2":"2 37804 000.0641 283.6551 0002083 322.6628 110.7449 01.00266869018156","LAUNCH_DATE":"2011-09-17","LAUNCH_SITE":"Xichang Space Center, China","OWNER":"PEOPLES REPUBLIC OF CHINA","ORBIT_TYPE":"Geosynchronous","OPERATIONAL_STATUS":"Operational","satInfo":{"lng":117.17935416725207,"lat":-1.4737736963575139,"elevation":-10.006155663652473,"azimuth":197.82064583274794,"range":42825.31639673004,"height":35809.70893527778,"velocity":3.0736111935142447},"x":267,"y":134,"dx":-1.4039561513699672,"dy":-2.734226196554793},{"OBJECT_ID":"2011-048A","OBJECT_NAME":"COSMOS 2473","NORAD_CAT_ID":"37806","OBJECT_TYPE":"PAYLOAD","PERIOD":"1436.113","INCLINATION":"0.0431","APOGEE":"35796.242","PERIGEE":"35777.588","ECCENTRICITY":"0.0002212","MEAN_MOTION":"1.00270649","TLE_LINE1":"1 37806U 11048A   16238.11026037 -.00000134 +00000-0 +00000-0 0  9997","TLE_LINE2":"2 37806 000.0431 138.4180 0002212 126.4957 095.0560 01.00270649018126","LAUNCH_DATE":"2011-09-20","LAUNCH_SITE":"TYURATAM MISSILE AND SPACE COMPLEX","OWNER":"COMMONWEALTH OF INDEPENDENT STATES","ORBIT_TYPE":"Geosynchronous","OPERATIONAL_STATUS":"Operational","satInfo":{"lng":-152.06486057018998,"lat":1.6770870253783616,"elevation":-6.937632623275223,"azimuth":107.06486057018996,"range":42430.57344102468,"height":35759.800894799446,"velocity":3.075837630628849},"x":-141,"y":258,"dx":-2.717436364262013,"dy":1.4409430024046554},{"OBJECT_ID":"2011-049A","OBJECT_NAME":"SES 2","NORAD_CAT_ID":"37809","OBJECT_TYPE":"PAYLOAD","PERIOD":"1436.108","INCLINATION":"0.0592","APOGEE":"35796.264","PERIGEE":"35777.374","ECCENTRICITY":"0.000224","MEAN_MOTION":"1.00270992","TLE_LINE1":"1 37809U 11049A   16239.28967916 -.00000224  00000-0  00000+0 0  9999","TLE_LINE2":"2 37809   0.0592 290.4419 0002240 216.1588 205.6304  1.00270992 18103","LAUNCH_DATE":"2011-09-21","LAUNCH_SITE":"FRENCH GUIANA","OWNER":"SOCIÉTÉ EUROPÉENNE DES SATELLITES","ORBIT_TYPE":"Geosynchronous","OPERATIONAL_STATUS":"Operational","satInfo":{"lng":-102.31540192971538,"lat":-0.18589322775954986,"elevation":-8.75327874564112,"azimuth":57.31540192971537,"range":42671.97489449304,"height":35797.05077479589,"velocity":3.074246783177216},"x":-293,"y":62,"dx":-0.6557153882327027,"dy":3.003503057016972}]